NORAD_CAT_ID,OBJECT_NAME,OBJECT_TYPE,EPOCH,MEAN_MOTION,ECCENTRICITY,INCLINATION,RA_OF_ASC_NODE,ARG_OF_PERICENTER,MEAN_ANOMALY,BSTAR,MEAN_MOTION_DOT,MEAN_MOTION_DDOT,TLE_LINE0,TLE_LINE1,TLE_LINE2,SEMIMAJOR_AXIS,PERIOD,APOGEE,PERIGEE,DECAYED
56771.0,STARLINK-6339,PAYLOAD,2023-06-13 14:00:01,15.77380254,0.0003467,70.0038,15.9571,268.7446,184.6092,-0.0063585,-0.00943776,0.0,0 STARLINK-6339,1 56771U 23078E   23164.58334491 -.00943776  00000-0 -63585-2 0  9996,2 56771  70.0038  15.9571 0003467 268.7446 184.6092 15.77380254  1307,6716.003,91.291,340.197,335.54,0.0
56771.0,STARLINK-6339,PAYLOAD,2023-06-13 18:00:00,15.77025746,0.0003571,70.0036,15.4835,269.1527,50.2384,-0.0062728,-0.00919185,0.0,0 STARLINK-6339,1 56771U 23078E   23164.75001157 -.00919185  00000-0 -62728-2 0  9990,2 56771  70.0036  15.4835 0003571 269.1527  50.2384 15.77025746  2422,6717.01,91.311,341.274,336.476,0.0
56771.0,STARLINK-6339,PAYLOAD,2023-06-13 22:00:00,15.76671987,0.0003303,70.0034,15.0102,273.8358,271.3825,-0.0059297,-0.00861138,0.0,0 STARLINK-6339,1 56771U 23078E   23164.91667824 -.00861138  00000-0 -59297-2 0  9998,2 56771  70.0034  15.0102 0003303 273.8358 271.3825 15.76671987  1305,6718.015,91.332,342.099,337.661,0.0
56771.0,STARLINK-6339,PAYLOAD,2023-06-14 14:00:01,15.75421083,0.0003515,70.0035,13.1189,268.0369,98.5013,-0.0068886,-0.00938047,0.0,0 STARLINK-6339,1 56771U 23078E   23165.58334491 -.00938047  00000-0 -68886-2 0  9991,2 56771  70.0035  13.1189 0003515 268.0369  98.5013 15.75421083  1300,6721.57,91.404,345.798,341.073,0.0
56771.0,STARLINK-6339,PAYLOAD,2023-06-14 20:00:01,15.74881534,0.0003489,70.0035,12.4105,271.856,71.9019,-0.0065338,-0.00875502,0.0,0 STARLINK-6339,1 56771U 23078E   23165.83334491 -.00875502  00000-0 -65338-2 0  9994,2 56771  70.0035  12.4105 0003489 271.8560  71.9019 15.74881534  2598,6723.105,91.435,347.316,342.625,0.0
56771.0,STARLINK-6339,PAYLOAD,2023-06-14 22:00:00,15.74721997,0.00034,70.0035,12.1745,275.2635,180.7899,-0.0065418,-0.00870927,0.0,0 STARLINK-6339,1 56771U 23078E   23165.91667824 -.00870927  00000-0 -65418-2 0  9997,2 56771  70.0035  12.1745 0003400 275.2635 180.7899 15.74721997  1308,6723.559,91.445,347.71,343.138,0.0
56771.0,STARLINK-6339,PAYLOAD,2023-06-15 12:00:02,15.73604435,0.0003326,70.0031,10.5245,267.5035,253.338,-0.0070798,-0.00895274,0.0,0 STARLINK-6339,1 56771U 23078E   23166.50002315 -.00895274  00000-0 -70798-2 0  9990,2 56771  70.0031  10.5245 0003326 267.5035 253.3380 15.73604435  2697,6726.742,91.51,350.845,346.37,0.0
56771.0,STARLINK-6339,PAYLOAD,2023-06-15 14:00:01,15.73468308,0.000347,70.0033,10.2889,266.0245,6.6549,-0.0075226,-0.00940577,0.0,0 STARLINK-6339,1 56771U 23078E   23166.58334491 -.00940577  00000-0 -75226-2 0  9999,2 56771  70.0033  10.2889 0003470 266.0245   6.6549 15.73468308  1307,6727.13,91.518,351.33,346.661,0.0
56771.0,STARLINK-6339,PAYLOAD,2023-06-15 20:00:01,15.72926422,0.0003523,70.0028,9.5828,270.9495,337.1919,-0.0071455,-0.00879377,0.0,0 STARLINK-6339,1 56771U 23078E   23166.83334491 -.00879377  00000-0 -71455-2 0  9996,2 56771  70.0028   9.5828 0003523 270.9495 337.1919 15.72926422  1303,6728.675,91.549,352.911,348.17,0.0
56771.0,STARLINK-6339,PAYLOAD,2023-06-16 04:00:00,15.72314712,0.0003587,70.0023,8.6416,270.954,63.7347,-0.0079262,-0.00942957,0.0,0 STARLINK-6339,1 56771U 23078E   23167.16667824 -.00942957  00000-0 -79262-2 0  9991,2 56771  70.0023   8.6416 0003587 270.9540  63.7347 15.72314712  2808,6730.42,91.585,354.7,349.871,0.0
56771.0,STARLINK-6339,PAYLOAD,2023-06-16 12:00:00,15.71651192,0.0003695,70.0024,7.7016,267.4476,153.0187,-0.0077896,-0.00905139,0.0,0 STARLINK-6339,1 56771U 23078E   23167.50001157 -.00905139  00000-0 -77896-2 0  9992,2 56771  70.0024   7.7016 0003695 267.4476 153.0187 15.71651192  2859,6732.315,91.623,356.667,351.692,0.0
56771.0,STARLINK-6339,PAYLOAD,2023-06-16 14:00:01,15.71503387,0.0003579,70.0027,7.4668,266.3364,265.4502,-0.008093,-0.00931454,0.0,0 STARLINK-6339,1 56771U 23078E   23167.58334491 -.00931454  00000-0 -80930-2 0  9992,2 56771  70.0027   7.4668 0003579 266.3364 265.4502 15.71503387  1307,6732.737,91.632,357.011,352.192,0.0
56771.0,STARLINK-6339,PAYLOAD,2023-06-16 22:00:00,15.70790009,0.000363,70.0025,6.5277,273.1296,343.4811,-0.0074131,-0.00837449,0.0,0 STARLINK-6339,1 56771U 23078E   23167.91667824 -.00837449  00000-0 -74131-2 0  9993,2 56771  70.0025   6.5277 0003630 273.1296 343.4811 15.70790009  1307,6734.775,91.674,359.085,354.195,0.0
56771.0,STARLINK-6339,PAYLOAD,2023-06-17 04:00:00,15.70200477,0.0003408,70.0019,5.8241,275.1103,314.5972,-0.0037179,-0.00430058,0.0,0 STARLINK-6339,1 56771U 23078E   23168.16667824 -.00430058  00000-0 -37179-2 0  9997,2 56771  70.0019   5.8241 0003408 275.1103 314.5972 15.70200477  2959,6736.461,91.708,360.621,356.03,0.0
56771.0,STARLINK-6339,PAYLOAD,2023-06-17 09:08:27,15.7028696,0.000348,70.0025,5.2221,276.1043,83.9756,-0.0038481,-0.004459,0.0,0 STARLINK-6339,1 56771U 23078E   23168.38087720 -.00445900  00000-0 -38481-2 0  9991,2 56771  70.0025   5.2221 0003480 276.1043  83.9756 15.70286960  2994,6736.213,91.703,360.422,355.734,0.0
56771.0,STARLINK-6339,PAYLOAD,2023-06-17 12:11:57,15.70165759,0.0003463,70.0024,4.8638,273.3314,86.7486,-0.0029496,-0.00344192,0.0,0 STARLINK-6339,1 56771U 23078E   23168.50830393 -.00344192  00000-0 -29496-2 0  9994,2 56771  70.0024   4.8638 0003463 273.3314  86.7486 15.70165759  2758,6736.56,91.71,360.758,356.092,0.0
56771.0,STARLINK-6339,PAYLOAD,2023-06-17 16:47:12,15.70050969,0.0003565,70.0024,4.3264,274.5906,85.4882,-0.0016406,-0.00194025,0.0,0 STARLINK-6339,1 56771U 23078E   23168.69945024 -.00194025  00000-0 -16406-2 0  9997,2 56771  70.0024   4.3264 0003565 274.5906  85.4882 15.70050969  3046,6736.888,91.717,361.155,356.352,0.0
56771.0,STARLINK-6339,PAYLOAD,2023-06-17 19:50:43,15.70003443,0.0003371,70.0023,3.9682,274.988,85.0931,-0.00081849,-0.00097813,0.0,0 STARLINK-6339,1 56771U 23078E   23168.82688689 -.00097813  00000-0 -81849-3 0  9994,2 56771  70.0023   3.9682 0003371 274.9880  85.0931 15.70003443  2803,6737.024,91.72,361.16,356.618,0.0
56771.0,STARLINK-6339,PAYLOAD,2023-06-18 04:00:00,15.69932529,0.0003454,70.0004,3.0125,274.704,205.1393,-0.00033557,-0.00040384,0.0,0 STARLINK-6339,1 56771U 23078E   23169.16667824 -.00040384  00000-0 -33557-3 0  9994,2 56771  70.0004   3.0125 0003454 274.7040 205.1393 15.69932529  3119,6737.227,91.724,361.419,356.765,0.0
56771.0,STARLINK-6339,PAYLOAD,2023-06-18 12:00:00,15.69935721,0.0003476,70.0005,2.0754,268.6168,294.5491,4.6537e-05,5.389e-05,0.0,0 STARLINK-6339,1 56771U 23078E   23169.50001157  .00005389  00000-0  46537-4 0  9990,2 56771  70.0005   2.0754 0003476 268.6168 294.5491 15.69935721  3167,6737.218,91.724,361.425,356.741,0.0
56771.0,STARLINK-6339,PAYLOAD,2023-06-18 12:40:00,15.69930556,0.0003213,70.0017,1.9978,267.645,92.4378,0.00010325,0.00012223,0.0,0 STARLINK-6339,1 56771U 23078E   23169.52778133  .00012223  00000-0  10325-3 0  9997,2 56771  70.0017   1.9978 0003213 267.6450  92.4378 15.69930556  2910,6737.233,91.724,361.262,356.933,0.0
56771.0,STARLINK-6339,PAYLOAD,2023-06-18 22:00:00,15.69891278,0.0003474,70.0007,0.9035,277.7844,119.5778,0.00056826,0.00068584,0.0,0 STARLINK-6339,1 56771U 23078E   23169.91667824  .00068584  00000-0  56826-3 0  9991,2 56771  70.0007   0.9035 0003474 277.7844 119.5778 15.69891278  1304,6737.345,91.726,361.551,356.869,0.0
56771.0,STARLINK-6339,PAYLOAD,2023-06-19 04:00:00,15.69964228,0.0003448,70.0004,0.2007,275.2802,94.5662,-0.00078869,-0.00094149,0.0,0 STARLINK-6339,1 56771U 23078E   23170.16667824 -.00094149  00000-0 -78869-3 0  9999,2 56771  70.0004   0.2007 0003448 275.2802  94.5662 15.69964228  3279,6737.136,91.722,361.324,356.678,0.0
56771.0,STARLINK-6339,PAYLOAD,2023-06-19 08:32:46,15.69953204,0.00035,70.0007,359.6686,275.3298,84.7499,0.00027271,0.00032747,0.0,0 STARLINK-6339,1 56771U 23078E   23170.35609627  .00032747  00000-0  27271-3 0  9992,2 56771  70.0007 359.6686 0003500 275.3298  84.7499 15.69953204  3300,6737.168,91.722,361.391,356.675,0.0
56771.0,STARLINK-6339,PAYLOAD,2023-06-19 13:08:02,15.69932451,0.0003543,70.0007,359.1309,273.8922,86.1868,0.00011787,0.00013989,0.0,0 STARLINK-6339,1 56771U 23078E   23170.54724893  .00013989  00000-0  11787-3 0  9998,2 56771  70.0007 359.1309 0003543 273.8922  86.1868 15.69932451  3072,6737.227,91.724,361.479,356.705,0.0
56771.0,STARLINK-6339,PAYLOAD,2023-06-19 20:00:01,15.69886409,0.0003619,70.0005,358.3265,276.2769,260.259,0.00050799,0.00061223,0.0,0 STARLINK-6339,1 56771U 23078E   23170.83334491  .00061223  00000-0  50799-3 0  9991,2 56771  70.0005 358.3265 0003619 276.2769 260.2590 15.69886409  3373,6737.359,91.726,361.662,356.786,0.0
56771.0,STARLINK-6339,PAYLOAD,2023-06-19 22:00:00,15.69890581,0.0003617,70.0006,358.0921,277.2743,10.089,0.00059446,0.00071783,0.0,0 STARLINK-6339,1 56771U 23078E   23170.91667824  .00071783  00000-0  59446-3 0  9999,2 56771  70.0006 358.0921 0003617 277.2743  10.0890 15.69890581  1302,6737.347,91.726,361.649,356.775,0.0
56771.0,STARLINK-6339,PAYLOAD,2023-06-20 04:00:00,15.69962788,0.0003593,70.0001,357.389,274.0375,345.8155,-0.00072804,-0.00086997,0.0,0 STARLINK-6339,1 56771U 23078E   23171.16667824 -.00086997  00000-0 -72804-3 0  9995,2 56771  70.0001 357.3890 0003593 274.0375 345.8155 15.69962788  3431,6737.14,91.722,361.426,356.585,0.0
56771.0,STARLINK-6339,PAYLOAD,2023-06-20 12:00:00,15.69938764,0.0003676,70.0004,356.4519,268.7885,74.4068,-0.00015388,-0.00018687,0.0,0 STARLINK-6339,1 56771U 23078E   23171.50001157 -.00018687  00000-0 -15388-3 0  9999,2 56771  70.0004 356.4519 0003676 268.7885  74.4068 15.69938764  3480,6737.209,91.723,361.551,356.598,0.0
56771.0,STARLINK-6339,PAYLOAD,2023-06-20 14:00:01,15.69963249,0.0003702,70.0005,356.2173,269.7952,184.2305,-0.00064809,-0.00077557,0.0,0 STARLINK-6339,1 56771U 23078E   23171.58334491 -.00077557  00000-0 -64809-3 0  9990,2 56771  70.0005 356.2173 0003702 269.7952 184.2305 15.69963249  1300,6737.139,91.722,361.498,356.51,0.0
